KUIPER-00275            
1 67793U 26030AF  26050.66668981  .00056837  00000+0  16925-2 0  9999
2 67793  51.8846 306.0633 0007870   2.8208 337.2807 15.34123564  1307
KUIPER-00276            
1 67794U 26030AG  26050.66668981  .00067198  00000+0  21311-2 0  9997
2 67794  51.8832 306.1543 0018876  10.9415 283.1386 15.31903641  2022
KUIPER-00279            
1 67795U 26030AH  26050.66668981  .00056903  00000+0  16729-2 0  9997
2 67795  51.8802 306.0379 0005762   1.0621 349.2467 15.34539469  1306
CREW DRAGON 12          
1 67796U 26031A   26050.82880434  .00062824  00000+0  11723-2 0  9994
2 67796  51.6323 160.6397 0008552 112.9938 247.1953 15.48149648553657
